[{"OBJECT_NAME":"STARLINK-31704","OBJECT_ID":"2024-076Y","EPOCH":"2026-03-09T22:00:01.999584","MEAN_MOTION":15.30892355,"ECCENTRICITY":0.00079744,"INCLINATION":42.9978,"RA_OF_ASC_NODE":323.2923,"ARG_OF_PERICENTER":240.5046,"MEAN_ANOMALY":200.4144,"EPHEMERIS_TYPE":0,"CLASSIFICATION_TYPE":"U","NORAD_CAT_ID":59586,"ELEMENT_SET_NO":999,"REV_AT_EPOCH":581,"BSTAR":0.0024766131,"MEAN_MOTION_DOT":0.00076042,"MEAN_MOTION_DDOT":0},{"OBJECT_NAME":"STARLINK-32050","OBJECT_ID":"2024-120C","EPOCH":"2026-03-09T23:10:55.595136","MEAN_MOTION":15.30175967,"ECCENTRICITY":0.0001062,"INCLINATION":53.1611,"RA_OF_ASC_NODE":318.9878,"ARG_OF_PERICENTER":74.8602,"MEAN_ANOMALY":285.2516,"EPHEMERIS_TYPE":0,"CLASSIFICATION_TYPE":"U","NORAD_CAT_ID":60137,"ELEMENT_SET_NO":999,"REV_AT_EPOCH":9641,"BSTAR":6.0217874e-5,"MEAN_MOTION_DOT":1.424e-5,"MEAN_MOTION_DDOT":0}]
